CCSDS_OMM_VERS = 2.0
CREATION_DATE  = 
ORIGINATOR     = 

OBJECT_NAME    = ISS OBJECT XW
OBJECT_ID      = 1998-067XW
CENTER_NAME    = EARTH
REF_FRAME      = TEME
TIME_SYSTEM    = UTC
MEAN_ELEMENT_THEORY = SGP/SGP4

EPOCH          = 2026-02-21T10:26:54.085344
MEAN_MOTION    = 15.64289027
ECCENTRICITY   = .0003675
INCLINATION    = 51.6256
RA_OF_ASC_NODE = 148.1096
ARG_OF_PERICENTER = 8.0146
MEAN_ANOMALY   = 352.0907

EPHEMERIS_TYPE = 0
CLASSIFICATION_TYPE = U
NORAD_CAT_ID   = 66910
ELEMENT_SET_NO = 999
REV_AT_EPOCH   = 1263
BSTAR          = .11607E-2
MEAN_MOTION_DOT = .114127E-2
MEAN_MOTION_DDOT = 0

CCSDS_OMM_VERS = 2.0
CREATION_DATE  = 
ORIGINATOR     = 

OBJECT_NAME    = ISS OBJECT XX
OBJECT_ID      = 1998-067XX
CENTER_NAME    = EARTH
REF_FRAME      = TEME
TIME_SYSTEM    = UTC
MEAN_ELEMENT_THEORY = SGP/SGP4

EPOCH          = 2026-02-21T11:46:44.763168
MEAN_MOTION    = 15.68283857
ECCENTRICITY   = .0005622
INCLINATION    = 51.6239
RA_OF_ASC_NODE = 146.9740
ARG_OF_PERICENTER = 0.2156
MEAN_ANOMALY   = 359.8842

EPHEMERIS_TYPE = 0
CLASSIFICATION_TYPE = U
NORAD_CAT_ID   = 66911
ELEMENT_SET_NO = 999
REV_AT_EPOCH   = 1264
BSTAR          = .15102E-2
MEAN_MOTION_DOT = .176042E-2
MEAN_MOTION_DDOT = 0

CCSDS_OMM_VERS = 2.0
CREATION_DATE  = 
ORIGINATOR     = 

OBJECT_NAME    = ISS OBJECT XY
OBJECT_ID      = 1998-067XY
CENTER_NAME    = EARTH
REF_FRAME      = TEME
TIME_SYSTEM    = UTC
MEAN_ELEMENT_THEORY = SGP/SGP4

EPOCH          = 2026-02-21T11:02:40.705440
MEAN_MOTION    = 15.60709388
ECCENTRICITY   = .0001755
INCLINATION    = 51.6292
RA_OF_ASC_NODE = 149.0369
ARG_OF_PERICENTER = 11.6268
MEAN_ANOMALY   = 348.4765

EPHEMERIS_TYPE = 0
CLASSIFICATION_TYPE = U
NORAD_CAT_ID   = 66912
ELEMENT_SET_NO = 999
REV_AT_EPOCH   = 1261
BSTAR          = .93062E-3
MEAN_MOTION_DOT = .79081E-3
MEAN_MOTION_DDOT = 0

CCSDS_OMM_VERS = 2.0
CREATION_DATE  = 
ORIGINATOR     = 

OBJECT_NAME    = ISS OBJECT XZ
OBJECT_ID      = 1998-067XZ
CENTER_NAME    = EARTH
REF_FRAME      = TEME
TIME_SYSTEM    = UTC
MEAN_ELEMENT_THEORY = SGP/SGP4

EPOCH          = 2026-02-21T11:48:31.702176
MEAN_MOTION    = 15.50458827
ECCENTRICITY   = .0010074
INCLINATION    = 51.6314
RA_OF_ASC_NODE = 152.2476
ARG_OF_PERICENTER = 132.3559
MEAN_ANOMALY   = 227.8285

EPHEMERIS_TYPE = 0
CLASSIFICATION_TYPE = U
NORAD_CAT_ID   = 67683
ELEMENT_SET_NO = 999
REV_AT_EPOCH   = 227
BSTAR          = .68048E-3
MEAN_MOTION_DOT = .3928E-3
MEAN_MOTION_DDOT = 0

CCSDS_OMM_VERS = 2.0
CREATION_DATE  = 
ORIGINATOR     = 

OBJECT_NAME    = GXIBA-1
OBJECT_ID      = 1998-067YA
CENTER_NAME    = EARTH
REF_FRAME      = TEME
TIME_SYSTEM    = UTC
MEAN_ELEMENT_THEORY = SGP/SGP4

EPOCH          = 2026-02-21T11:36:49.944096
MEAN_MOTION    = 15.51722963
ECCENTRICITY   = .0011704
INCLINATION    = 51.6313
RA_OF_ASC_NODE = 152.1932
ARG_OF_PERICENTER = 125.0335
MEAN_ANOMALY   = 235.1755

EPHEMERIS_TYPE = 0
CLASSIFICATION_TYPE = U
NORAD_CAT_ID   = 67684
ELEMENT_SET_NO = 999
REV_AT_EPOCH   = 227
BSTAR          = .12031E-2
MEAN_MOTION_DOT = .73407E-3
MEAN_MOTION_DDOT = 0

CCSDS_OMM_VERS = 2.0
CREATION_DATE  = 
ORIGINATOR     = 

OBJECT_NAME    = CORAL
OBJECT_ID      = 1998-067YB
CENTER_NAME    = EARTH
REF_FRAME      = TEME
TIME_SYSTEM    = UTC
MEAN_ELEMENT_THEORY = SGP/SGP4

EPOCH          = 2026-02-21T11:46:22.340640
MEAN_MOTION    = 15.50667475
ECCENTRICITY   = .0012029
INCLINATION    = 51.6309
RA_OF_ASC_NODE = 152.2369
ARG_OF_PERICENTER = 128.6764
MEAN_ANOMALY   = 231.5303

EPHEMERIS_TYPE = 0
CLASSIFICATION_TYPE = U
NORAD_CAT_ID   = 67685
ELEMENT_SET_NO = 999
REV_AT_EPOCH   = 227
BSTAR          = .74046E-3
MEAN_MOTION_DOT = .43161E-3
MEAN_MOTION_DDOT = 0

CCSDS_OMM_VERS = 2.0
CREATION_DATE  = 
ORIGINATOR     = 

OBJECT_NAME    = ISS OBJECT YC
OBJECT_ID      = 1998-067YC
CENTER_NAME    = EARTH
REF_FRAME      = TEME
TIME_SYSTEM    = UTC
MEAN_ELEMENT_THEORY = SGP/SGP4

EPOCH          = 2026-02-21T11:44:10.470048
MEAN_MOTION    = 15.50924553
ECCENTRICITY   = .0007717
INCLINATION    = 51.6316
RA_OF_ASC_NODE = 152.2270
ARG_OF_PERICENTER = 100.0521
MEAN_ANOMALY   = 260.1340

EPHEMERIS_TYPE = 0
CLASSIFICATION_TYPE = U
NORAD_CAT_ID   = 67686
ELEMENT_SET_NO = 999
REV_AT_EPOCH   = 227
BSTAR          = .87491E-3
MEAN_MOTION_DOT = .51525E-3
MEAN_MOTION_DDOT = 0

CCSDS_OMM_VERS = 2.0
CREATION_DATE  = 
ORIGINATOR     = 

OBJECT_NAME    = LEOPARD
OBJECT_ID      = 1998-067YD
CENTER_NAME    = EARTH
REF_FRAME      = TEME
TIME_SYSTEM    = UTC
MEAN_ELEMENT_THEORY = SGP/SGP4

EPOCH          = 2026-02-21T11:47:16.030464
MEAN_MOTION    = 15.50581652
ECCENTRICITY   = .0007804
INCLINATION    = 51.6314
RA_OF_ASC_NODE = 152.2418
ARG_OF_PERICENTER = 102.7500
MEAN_ANOMALY   = 257.4362

EPHEMERIS_TYPE = 0
CLASSIFICATION_TYPE = U
NORAD_CAT_ID   = 67687
ELEMENT_SET_NO = 999
REV_AT_EPOCH   = 219
BSTAR          = .71002E-3
MEAN_MOTION_DOT = .41163E-3
MEAN_MOTION_DDOT = 0

CCSDS_OMM_VERS = 2.0
CREATION_DATE  = 
ORIGINATOR     = 

OBJECT_NAME    = ISS OBJECT YE
OBJECT_ID      = 1998-067YE
CENTER_NAME    = EARTH
REF_FRAME      = TEME
TIME_SYSTEM    = UTC
MEAN_ELEMENT_THEORY = SGP/SGP4

EPOCH          = 2026-02-21T11:45:04.654080
MEAN_MOTION    = 15.50807123
ECCENTRICITY   = .00077
INCLINATION    = 51.6323
RA_OF_ASC_NODE = 152.2323
ARG_OF_PERICENTER = 100.5477
MEAN_ANOMALY   = 259.6380

EPHEMERIS_TYPE = 0
CLASSIFICATION_TYPE = U
NORAD_CAT_ID   = 67688
ELEMENT_SET_NO = 999
REV_AT_EPOCH   = 219
BSTAR          = .80842E-3
MEAN_MOTION_DOT = .47348E-3
MEAN_MOTION_DDOT = 0

CCSDS_OMM_VERS = 2.0
CREATION_DATE  = 
ORIGINATOR     = 

OBJECT_NAME    = CREW DRAGON 12
OBJECT_ID      = 2026-031A
CENTER_NAME    = EARTH
REF_FRAME      = TEME
TIME_SYSTEM    = UTC
MEAN_ELEMENT_THEORY = SGP/SGP4

EPOCH          = 2026-02-21T05:58:25.424832
MEAN_MOTION    = 15.48178501
ECCENTRICITY   = .00085229
INCLINATION    = 51.6322
RA_OF_ASC_NODE = 153.6219
ARG_OF_PERICENTER = 117.8535
MEAN_ANOMALY   = 242.3318

EPHEMERIS_TYPE = 0
CLASSIFICATION_TYPE = U
NORAD_CAT_ID   = 67796
ELEMENT_SET_NO = 999
REV_AT_EPOCH   = 55375
BSTAR          = .21781902E-3
MEAN_MOTION_DOT = .11241E-3
MEAN_MOTION_DDOT = 0

