ISS OBJECT XW           
1 66910U 98067XW  26052.43534821  .00114127  00000+0  11607-2 0  9999
2 66910  51.6256 148.1096 0003675   8.0146 352.0907 15.64289027 12630
ISS OBJECT XX           
1 66911U 98067XX  26052.49079587  .00176042  00000+0  15102-2 0  9997
2 66911  51.6239 146.9740 0005622   0.2156 359.8842 15.68283857 12646
ISS OBJECT XY           
1 66912U 98067XY  26052.46019335  .00079081  00000+0  93062-3 0  9997
2 66912  51.6292 149.0369 0001755  11.6268 348.4765 15.60709388 12619
ISS OBJECT XZ           
1 67683U 98067XZ  26052.49203359  .00039280  00000+0  68048-3 0  9990
2 67683  51.6314 152.2476 0010074 132.3559 227.8285 15.50458827  2279
GXIBA-1                 
1 67684U 98067YA  26052.48391139  .00073407  00000+0  12031-2 0  9993
2 67684  51.6313 152.1932 0011704 125.0335 235.1755 15.51722963  2277
CORAL                   
1 67685U 98067YB  26052.49053635  .00043161  00000+0  74046-3 0  9990
2 67685  51.6309 152.2369 0012029 128.6764 231.5303 15.50667475  2278
ISS OBJECT YC           
1 67686U 98067YC  26052.48901007  .00051525  00000+0  87491-3 0  9996
2 67686  51.6316 152.2270 0007717 100.0521 260.1340 15.50924553  2273
LEOPARD                 
1 67687U 98067YD  26052.49115776  .00041163  00000+0  71002-3 0  9996
2 67687  51.6314 152.2418 0007804 102.7500 257.4362 15.50581652  2192
ISS OBJECT YE           
1 67688U 98067YE  26052.48963720  .00047348  00000+0  80842-3 0  9999
2 67688  51.6323 152.2323 0007700 100.5477 259.6380 15.50807123  2190
CREW DRAGON 12          
1 67796U 26031A   26052.24890538  .00011241  00000+0  21782-3 0  9992
2 67796  51.6322 153.6219 0008522 117.8535 242.3318 15.48178501553758
